"216 Kleopatra:Kleopatra:A905 OA" "Sol"
{
	Class "asteroid"
	Mesh   "kleopatra.cmod"
	Texture "asteroid.jpg"
        Color [ 1.000 0.932 0.888 ]
	BlendTexture true
	Radius  110 # maximum semi-axis
	MeshCenter [ -3.049 2.379 1.429 ]

	InfoURL "http://echo.jpl.nasa.gov/~ostro/kle/index.html" 

	EllipticalOrbit
	{
	Epoch       2450800.5    # 1997 Dec 12 00:00UT
	Period            4.67
	SemiMajorAxis     2.791
	Eccentricity      0.2531
	Inclination      13.138
	AscendingNode   215.699
	ArgOfPericenter 179.350
        MeanAnomaly     225.804
	}

	UniformRotation
	{
	Period         5.385
	Inclination             63 
	AscendingNode 162    
	}

	Albedo 0.16
	# Class M

}

"1998 KY26" "Sol"
{
	Class "asteroid"
	Mesh   "ky26.cmod"
	Texture "asteroid.jpg"
	Radius  0.015 # maximum semi-axis
	MeshCenter [ -0.000718 -0.000099 0.000556 ]

	InfoURL "http://echo.jpl.nasa.gov/~ostro/KY26/index.html"

	EllipticalOrbit
	{
	Epoch       2452000.5        # 2001 Apr 1 00:00UT
	Period            1.3752
	SemiMajorAxis     1.2320798
	Eccentricity      0.20151423
	Inclination       1.48127
	AscendingNode    84.45490
	ArgOfPericenter 209.14766
        MeanAnomaly     356.6879717
	}

	UniformRotation
	{
	Period 0.178
	}

	Albedo 0.15

}

"2063 Bacchus:Bacchus:1977 HB" "Sol"
{
	Class "asteroid"
	Mesh   "bacchus.cmod"
	Texture "asteroid.jpg"
        Color [ 1.000 0.899 0.777 ]
	BlendTexture true
	Radius  0.55 # maximum semi-axis
	MeshCenter [ -0.00936 -0.00610 0.00289 ]

	InfoURL "http://echo.jpl.nasa.gov/~ostro/bacchus/index.html" 

	EllipticalOrbit
	{
	Epoch       2452000.5        # 2001 Apr 1 00:00UT 
	Period            1.1223
	SemiMajorAxis     1.0781035
	Eccentricity      0.34951251
	Inclination       9.43160
	AscendingNode    33.23590
	ArgOfPericenter  55.18040
        MeanAnomaly     229.8627955
	}

	UniformRotation
	{
	Period        14.90 
	Inclination            116 
	AscendingNode 114 
	}

	Albedo 0.15
}

"6489 Golevka:Golevka:1991 JX" "Sol"
{
	Class "asteroid"
	Mesh   "golevka.cmod"
	Texture "asteroid.jpg"
        Color [ 1.000 0.856 0.747 ]
	BlendTexture true
	Radius  0.34 # maximum semi-axis
	MeshCenter [ -0.0289 -0.0111 -0.0331 ]

	InfoURL "http://echo.jpl.nasa.gov/~ostro/gol/index.html" 

	EllipticalOrbit
	{
	Epoch       2452000.5        # 2001 Apr 1 00:00UT 
	Period            3.995
	SemiMajorAxis     2.5120500
	Eccentricity      0.60117380
	Inclination       2.28701
	AscendingNode   212.16560
	ArgOfPericenter  65.25133
        MeanAnomaly     159.8983670
	}

	UniformRotation
	{
	Period         6.0289 
	Inclination            135 
	AscendingNode 292 
	}
    
	Albedo 0.15 
}

"4769 Castalia:Castalia:1989 PB" "Sol"
{ 
	Class "asteroid"
	Mesh   "castalia.cmod"
	Texture "asteroid.jpg"
	BlendTexture true
	Radius  0.81 # maximum semi-axis
	MeshCenter [ -0.0456 -0.0347 -0.0178 ]

	InfoURL "http://echo.jpl.nasa.gov/asteroids/4769_Castalia/cast01.html"

	EllipticalOrbit
	{
	Epoch       2452000.5        # 2001 Apr 1 00:00UT
	Period            1.096
	SemiMajorAxis     1.0632007
	Eccentricity      0.48324394
	Inclination       8.88806
	AscendingNode   325.71246
	ArgOfPericenter 121.26355
        MeanAnomaly     152.5186007
	}

	UniformRotation
	{
	Period         4.095 
	Inclination            146 
	AscendingNode 325 
	}

	Albedo 0.15 
}

# Centaurs
"2060 Chiron:Chiron:1977 UB:95P Chiron" "Sol" 
{ 
	Class "asteroid" 
	Texture "asteroid.jpg" 
        Color [ 1.000 0.960 0.919 ]
	BlendTexture true
	Radius 144 

	EllipticalOrbit 
	{ 
	Epoch        2449608.5      # 1994 Sep 13 00:00UT
	Period            50.90359 
	SemiMajorAxis     13.734941 
	Eccentricity       0.384424 
	Inclination        6.927771 
	AscendingNode    209.395188 
	ArgOfPericenter  339.432152 
	MeanAnomaly      349.983669 
	} 

	UniformRotation
	{
	Period 5.918 
	}

	Albedo 0.048 
}
